[{"OBJECT_NAME":"STARLINK-1506","OBJECT_ID":"2020-038T","EPOCH":"2026-03-09T15:50:48.887520","MEAN_MOTION":15.26134655,"ECCENTRICITY":0.00025141,"INCLINATION":53.0733,"RA_OF_ASC_NODE":202.5028,"ARG_OF_PERICENTER":227.7836,"MEAN_ANOMALY":132.2949,"EPHEMERIS_TYPE":0,"CLASSIFICATION_TYPE":"U","NORAD_CAT_ID":45747,"ELEMENT_SET_NO":999,"REV_AT_EPOCH":31668,"BSTAR":0.0009799682,"MEAN_MOTION_DOT":0.0002538,"MEAN_MOTION_DDOT":0},{"OBJECT_NAME":"STARLINK-30088","OBJECT_ID":"2023-107F","EPOCH":"2026-03-09T02:15:08.029152","MEAN_MOTION":15.26769614,"ECCENTRICITY":0.00019413,"INCLINATION":43.0038,"RA_OF_ASC_NODE":339.6676,"ARG_OF_PERICENTER":259.6478,"MEAN_ANOMALY":100.4155,"EPHEMERIS_TYPE":0,"CLASSIFICATION_TYPE":"U","NORAD_CAT_ID":57462,"ELEMENT_SET_NO":999,"REV_AT_EPOCH":14505,"BSTAR":0.00026190877,"MEAN_MOTION_DOT":6.778e-5,"MEAN_MOTION_DDOT":0}]
